start=new Date('2021-12-09T00:00:00.000Z').valueOf();
sats=[{"DECAY_DATE":null,"PERIOD":"95.592","CLASSIFICATION_TYPE":"U","ECCENTRICITY":"0.00013250","MEAN_ELEMENT_THEORY":"SGP4","TLE_LINE1":"1 46120U 20057D   21342.74665705 -.00001753  00000-0 -98815-4 0  9992","EPHEMERIS_TYPE":"0","APOAPSIS":"548.117","OBJECT_NAME":"STARLINK-1601","GP_ID":"191362905","FILE":"3235972","INCLINATION":"53.0552","REF_FRAME":"TEME","LAUNCH_DATE":"2020-08-18","ELEMENT_SET_NO":"999","ARG_OF_PERICENTER":"82.5518","MEAN_ANOMALY":"277.5621","MEAN_MOTION":"15.06404537","CENTER_NAME":"EARTH","MEAN_MOTION_DDOT":"0.0000000000000","BSTAR":"-0.00009881500000","COUNTRY_CODE":"US","RA_OF_ASC_NODE":"83.5633","TLE_LINE2":"2 46120  53.0552  83.5633 0001325  82.5518 277.5621 15.06404537 73435","PERIAPSIS":"546.282","EPOCH":"2021-12-08T17:55:11.169120","OBJECT_TYPE":"PAYLOAD","MEAN_MOTION_DOT":"-0.00001753","SEMIMAJOR_AXIS":"6925.335","OBJECT_ID":"2020-057D","SITE":"AFETR","REV_AT_EPOCH":"7343","RCS_SIZE":"LARGE","TIME_SYSTEM":"UTC","NORAD_CAT_ID":"46120"},{"ECCENTRICITY":"0.00014050","PERIOD":"95.592","DECAY_DATE":null,"CLASSIFICATION_TYPE":"U","MEAN_ELEMENT_THEORY":"SGP4","EPHEMERIS_TYPE":"0","TLE_LINE1":"1 46121U 20057E   21342.51629098 -.00000092  00000-0  12742-4 0  9992","GP_ID":"191333415","APOAPSIS":"548.203","OBJECT_NAME":"STARLINK-1602","ARG_OF_PERICENTER":"61.3611","MEAN_ANOMALY":"298.7519","MEAN_MOTION":"15.06394680","REF_FRAME":"TEME","FILE":"3235746","INCLINATION":"53.0557","ELEMENT_SET_NO":"999","LAUNCH_DATE":"2020-08-18","CENTER_NAME":"EARTH","TLE_LINE2":"2 46121  53.0557  64.6005 0001405  61.3611 298.7519 15.06394680 72394","EPOCH":"2021-12-08T12:23:27.540672","PERIAPSIS":"546.257","BSTAR":"0.00001274200000","MEAN_MOTION_DDOT":"0.0000000000000","RA_OF_ASC_NODE":"64.6005","COUNTRY_CODE":"US","SEMIMAJOR_AXIS":"6925.365","OBJECT_ID":"2020-057E","OBJECT_TYPE":"PAYLOAD","MEAN_MOTION_DOT":"-0.00000092","RCS_SIZE":"LARGE","TIME_SYSTEM":"UTC","NORAD_CAT_ID":"46121","SITE":"AFETR","REV_AT_EPOCH":"7239"},{"DECAY_DATE":null,"PERIOD":"95.592","CLASSIFICATION_TYPE":"U","ECCENTRICITY":"0.00015770","MEAN_ELEMENT_THEORY":"SGP4","EPHEMERIS_TYPE":"0","TLE_LINE1":"1 46122U 20057F   21342.59185050 -.00000420  00000-0 -93232-5 0  9996","APOAPSIS":"548.308","OBJECT_NAME":"STARLINK-1604","GP_ID":"191361903","FILE":"3235972","REF_FRAME":"TEME","INCLINATION":"53.0556","LAUNCH_DATE":"2020-08-18","ELEMENT_SET_NO":"999","MEAN_ANOMALY":"297.7110","ARG_OF_PERICENTER":"62.4039","MEAN_MOTION":"15.06399122","CENTER_NAME":"EARTH","MEAN_MOTION_DDOT":"0.0000000000000","BSTAR":"-0.00000932320000","COUNTRY_CODE":"US","RA_OF_ASC_NODE":"44.2527","TLE_LINE2":"2 46122  53.0556  44.2527 0001577  62.4039 297.7110 15.06399122 73947","PERIAPSIS":"546.124","EPOCH":"2021-12-08T14:12:15.883200","MEAN_MOTION_DOT":"-0.00000420","OBJECT_TYPE":"PAYLOAD","SEMIMAJOR_AXIS":"6925.351","OBJECT_ID":"2020-057F","SITE":"AFETR","REV_AT_EPOCH":"7394","RCS_SIZE":"LARGE","TIME_SYSTEM":"UTC","NORAD_CAT_ID":"46122"},{"GP_ID":"191362655","OBJECT_NAME":"STARLINK-1605","APOAPSIS":"548.215","MEAN_MOTION":"15.06405502","ARG_OF_PERICENTER":"71.0193","MEAN_ANOMALY":"289.0955","LAUNCH_DATE":"2020-08-18","ELEMENT_SET_NO":"999","INCLINATION":"53.0547","FILE":"3235972","REF_FRAME":"TEME","ECCENTRICITY":"0.00014710","CLASSIFICATION_TYPE":"U","DECAY_DATE":null,"PERIOD":"95.592","EPHEMERIS_TYPE":"0","TLE_LINE1":"1 46123U 20057G   21342.90884358  .00003762  00000-0  27126-3 0  9996","MEAN_ELEMENT_THEORY":"SGP4","OBJECT_ID":"2020-057G","SEMIMAJOR_AXIS":"6925.332","OBJECT_TYPE":"PAYLOAD","MEAN_MOTION_DOT":"0.00003762","TIME_SYSTEM":"UTC","NORAD_CAT_ID":"46123","RCS_SIZE":"LARGE","REV_AT_EPOCH":"7401","SITE":"AFETR","CENTER_NAME":"EARTH","PERIAPSIS":"546.178","EPOCH":"2021-12-08T21:48:44.085312","TLE_LINE2":"2 46123  53.0547  42.8345 0001471  71.0193 289.0955 15.06405502 74010","COUNTRY_CODE":"US","RA_OF_ASC_NODE":"42.8345","MEAN_MOTION_DDOT":"0.0000000000000","BSTAR":"0.00027126000000"},{"MEAN_ELEMENT_THEORY":"SGP4","TLE_LINE1":"1 46124U 20057H   21342.45179050 -.00000054  00000-0  15281-4 0  9995","EPHEMERIS_TYPE":"0","PERIOD":"95.592","DECAY_DATE":null,"CLASSIFICATION_TYPE":"U","ECCENTRICITY":"0.00013100","FILE":"3235746","INCLINATION":"53.0564","REF_FRAME":"TEME","LAUNCH_DATE":"2020-08-18","ELEMENT_SET_NO":"999","ARG_OF_PERICENTER":"55.7593","MEAN_ANOMALY":"304.3520","MEAN_MOTION":"15.06396929","APOAPSIS":"548.130","OBJECT_NAME":"STARLINK-1614","GP_ID":"191333665","MEAN_MOTION_DDOT":"0.0000000000000","BSTAR":"0.00001528100000","COUNTRY_CODE":"US","RA_OF_ASC_NODE":"44.8937","TLE_LINE2":"2 46124  53.0564  44.8937 0001310  55.7593 304.3520 15.06396929 72675","PERIAPSIS":"546.316","EPOCH":"2021-12-08T10:50:34.699200","CENTER_NAME":"EARTH","SITE":"AFETR","REV_AT_EPOCH":"7267","RCS_SIZE":"LARGE","NORAD_CAT_ID":"46124","TIME_SYSTEM":"UTC","OBJECT_TYPE":"PAYLOAD","MEAN_MOTION_DOT":"-0.00000054","SEMIMAJOR_AXIS":"6925.358","OBJECT_ID":"2020-057H"},{"CENTER_NAME":"EARTH","COUNTRY_CODE":"US","RA_OF_ASC_NODE":"83.4697","MEAN_MOTION_DDOT":"0.0000000000000","BSTAR":"0.00010036000000","PERIAPSIS":"546.376","EPOCH":"2021-12-08T18:21:43.210944","TLE_LINE2":"2 46125  53.0540  83.4697 0001220  84.5577 275.5551 15.06397501 73417","OBJECT_TYPE":"PAYLOAD","MEAN_MOTION_DOT":"0.00001214","OBJECT_ID":"2020-057J","SEMIMAJOR_AXIS":"6925.356","REV_AT_EPOCH":"7341","SITE":"AFETR","NORAD_CAT_ID":"46125","TIME_SYSTEM":"UTC","RCS_SIZE":"LARGE","CLASSIFICATION_TYPE":"U","DECAY_DATE":null,"PERIOD":"95.592","ECCENTRICITY":"0.00012200","TLE_LINE1":"1 46125U 20057J   21342.76508346  .00001214  00000-0  10036-3 0  9994","EPHEMERIS_TYPE":"0","MEAN_ELEMENT_THEORY":"SGP4","OBJECT_NAME":"STARLINK-1618","APOAPSIS":"548.066","GP_ID":"191362154","LAUNCH_DATE":"2020-08-18","ELEMENT_SET_NO":"999","FILE":"3235972","REF_FRAME":"TEME","INCLINATION":"53.0540","MEAN_MOTION":"15.06397501","MEAN_ANOMALY":"275.5551","ARG_OF_PERICENTER":"84.5577"},{"CENTER_NAME":"EARTH","TLE_LINE2":"2 46126  53.0722  84.1151 0001649  64.5845 295.5314 15.06389452 72137","EPOCH":"2021-12-08T14:33:30.124224","PERIAPSIS":"546.104","BSTAR":"0.00022864000000","MEAN_MOTION_DDOT":"0.0000000000000","RA_OF_ASC_NODE":"84.1151","COUNTRY_CODE":"US","SEMIMAJOR_AXIS":"6925.381","OBJECT_ID":"2020-057K","MEAN_MOTION_DOT":"0.00003125","OBJECT_TYPE":"PAYLOAD","RCS_SIZE":"LARGE","NORAD_CAT_ID":"46126","TIME_SYSTEM":"UTC","SITE":"AFETR","REV_AT_EPOCH":"7213","ECCENTRICITY":"0.00016490","DECAY_DATE":null,"PERIOD":"95.593","CLASSIFICATION_TYPE":"U","MEAN_ELEMENT_THEORY":"SGP4","EPHEMERIS_TYPE":"0","TLE_LINE1":"1 46126U 20057K   21342.60659866  .00003125  00000-0  22864-3 0  9997","GP_ID":"191362404","APOAPSIS":"548.388","OBJECT_NAME":"STARLINK-1619","MEAN_ANOMALY":"295.5314","ARG_OF_PERICENTER":"64.5845","MEAN_MOTION":"15.06389452","REF_FRAME":"TEME","FILE":"3235972","INCLINATION":"53.0722","ELEMENT_SET_NO":"999","LAUNCH_DATE":"2020-08-18"},{"SEMIMAJOR_AXIS":"6925.374","OBJECT_ID":"2020-057L","OBJECT_TYPE":"PAYLOAD","MEAN_MOTION_DOT":"-0.00000274","RCS_SIZE":"LARGE","NORAD_CAT_ID":"46127","TIME_SYSTEM":"UTC","SITE":"AFETR","REV_AT_EPOCH":"7239","CENTER_NAME":"EARTH","TLE_LINE2":"2 46127  53.0551  64.5329 0001289  71.5372 288.5757 15.06391726 72398","PERIAPSIS":"546.346","EPOCH":"2021-12-08T12:44:41.699616","MEAN_MOTION_DDOT":"0.0000000000000","BSTAR":"0.00000047179000","COUNTRY_CODE":"US","RA_OF_ASC_NODE":"64.5329","GP_ID":"191334917","APOAPSIS":"548.132","OBJECT_NAME":"STARLINK-1621","ARG_OF_PERICENTER":"71.5372","MEAN_ANOMALY":"288.5757","MEAN_MOTION":"15.06391726","REF_FRAME":"TEME","FILE":"3235746","INCLINATION":"53.0551","LAUNCH_DATE":"2020-08-18","ELEMENT_SET_NO":"999","ECCENTRICITY":"0.00012890","DECAY_DATE":null,"PERIOD":"95.593","CLASSIFICATION_TYPE":"U","MEAN_ELEMENT_THEORY":"SGP4","TLE_LINE1":"1 46127U 20057L   21342.53103819 -.00000274  00000-0  47179-6 0  9994","EPHEMERIS_TYPE":"0"},{"APOAPSIS":"548.356","OBJECT_NAME":"STARLINK-1622","GP_ID":"191362906","FILE":"3235972","REF_FRAME":"TEME","INCLINATION":"53.0563","LAUNCH_DATE":"2020-08-18","ELEMENT_SET_NO":"999","MEAN_ANOMALY":"297.4135","ARG_OF_PERICENTER":"62.7019","MEAN_MOTION":"15.06393677","DECAY_DATE":null,"PERIOD":"95.593","CLASSIFICATION_TYPE":"U","ECCENTRICITY":"0.00016220","MEAN_ELEMENT_THEORY":"SGP4","EPHEMERIS_TYPE":"0","TLE_LINE1":"1 46128U 20057M   21342.89041715  .00001003  00000-0  86214-4 0  9991","OBJECT_TYPE":"PAYLOAD","MEAN_MOTION_DOT":"0.00001003","SEMIMAJOR_AXIS":"6925.368","OBJECT_ID":"2020-057M","SITE":"AFETR","REV_AT_EPOCH":"7273","RCS_SIZE":"LARGE","TIME_SYSTEM":"UTC","NORAD_CAT_ID":"46128","CENTER_NAME":"EARTH","MEAN_MOTION_DDOT":"0.0000000000000","BSTAR":"0.00008621400000","COUNTRY_CODE":"US","RA_OF_ASC_NODE":"42.9245","TLE_LINE2":"2 46128  53.0563  42.9245 0001622  62.7019 297.4135 15.06393677 72734","PERIAPSIS":"546.110","EPOCH":"2021-12-08T21:22:12.041760"},{"MEAN_MOTION_DOT":"-0.00000504","OBJECT_TYPE":"PAYLOAD","OBJECT_ID":"2020-057N","SEMIMAJOR_AXIS":"6925.377","REV_AT_EPOCH":"7273","SITE":"AFETR","TIME_SYSTEM":"UTC","NORAD_CAT_ID":"46129","RCS_SIZE":"LARGE","CENTER_NAME":"EARTH","RA_OF_ASC_NODE":"43.0393","COUNTRY_CODE":"US","BSTAR":"-0.00001494500000","MEAN_MOTION_DDOT":"0.0000000000000","EPOCH":"2021-12-08T20:45:02.377440","PERIAPSIS":"546.315","TLE_LINE2":"2 46129  53.0564  43.0393 0001338  71.8725 288.2410 15.06390724 72735","OBJECT_NAME":"STARLINK-1623","APOAPSIS":"548.169","GP_ID":"191361654","ELEMENT_SET_NO":"999","LAUNCH_DATE":"2020-08-18","FILE":"3235972","REF_FRAME":"TEME","INCLINATION":"53.0564","MEAN_MOTION":"15.06390724","MEAN_ANOMALY":"288.2410","ARG_OF_PERICENTER":"71.8725","CLASSIFICATION_TYPE":"U","DECAY_DATE":null,"PERIOD":"95.593","ECCENTRICITY":"0.00013380","TLE_LINE1":"1 46129U 20057N   21342.86461085 -.00000504  00000-0 -14945-4 0  9994","EPHEMERIS_TYPE":"0","MEAN_ELEMENT_THEORY":"SGP4"}];
